NORAD_CAT_ID,OBJECT_NAME,OBJECT_TYPE,EPOCH,MEAN_MOTION,ECCENTRICITY,INCLINATION,RA_OF_ASC_NODE,ARG_OF_PERICENTER,MEAN_ANOMALY,BSTAR,MEAN_MOTION_DOT,MEAN_MOTION_DDOT,TLE_LINE0,TLE_LINE1,TLE_LINE2,SEMIMAJOR_AXIS,PERIOD,APOGEE,PERIGEE,DECAYED
51891.0,STARLINK-3549,PAYLOAD,2022-11-07 12:33:04,15.08824753,0.0001833,53.2205,67.6959,54.1352,305.981,0.00024093,3.547e-05,0.0,0 STARLINK-3549,1 51891U 22022AR  22311.52296850  .00003547  00000-0  24093-3 0  9998,2 51891  53.2205  67.6959 0001833  54.1352 305.9810 15.08824753 39393,6917.927,95.439,541.06,538.524,0.0
51891.0,STARLINK-3549,PAYLOAD,2022-11-07 17:19:13,15.08830932,0.0001877,53.2205,66.8037,55.5763,304.5406,0.0003145,4.72e-05,0.0,0 STARLINK-3549,1 51891U 22022AR  22311.72168520  .00004720  00000-0  31450-3 0  9991,2 51891  53.2205  66.8037 0001877  55.5763 304.5406 15.08830932 39426,6917.908,95.438,541.072,538.475,0.0
51891.0,STARLINK-3549,PAYLOAD,2022-11-08 07:37:40,15.08854742,0.0001867,53.2205,64.1277,55.3848,304.732,0.00033916,5.116e-05,0.0,0 STARLINK-3549,1 51891U 22022AR  22312.31782865  .00005116  00000-0  33916-3 0  9990,2 51891  53.2205  64.1277 0001867  55.3848 304.7320 15.08854742 39516,6917.835,95.437,540.992,538.409,0.0
51891.0,STARLINK-3549,PAYLOAD,2022-11-09 13:49:59,15.08854145,0.0001893,53.2198,58.4787,46.37,313.7449,4.379e-05,4.09e-06,0.0,0 STARLINK-3549,1 51891U 22022AR  22313.57638561  .00000409  00000-0  43790-4 0  9994,2 51891  53.2198  58.4787 0001893  46.3700 313.7449 15.08854145 39705,6917.837,95.437,541.012,538.393,0.0
51891.0,STARLINK-3549,PAYLOAD,2022-11-09 17:00:46,15.08844257,0.0001948,53.2214,57.8858,48.2927,311.8232,-0.00010094,-1.895e-05,0.0,0 STARLINK-3549,1 51891U 22022AR  22313.70887517 -.00001895  00000-0 -10094-3 0  9998,2 51891  53.2214  57.8858 0001948  48.2927 311.8232 15.08844257 39723,6917.8669999999975,95.437,541.08,538.385,0.0
51891.0,STARLINK-3549,PAYLOAD,2022-11-10 10:30:00,15.08845705,0.0001737,53.218,54.6141,42.203,317.9096,-8.6993e-05,-1.673e-05,0.0,0 STARLINK-3549,1 51891U 22022AR  22314.43750781 -.00001673  00000-0 -86993-4 0  9997,2 51891  53.2180  54.6141 0001737  42.2030 317.9096 15.08845705 39836,6917.863,95.437,540.93,538.526,0.0
51891.0,STARLINK-3549,PAYLOAD,2022-11-10 16:51:34,15.08836222,0.0001629,53.2189,53.4225,34.9908,325.1191,-0.00023587,-4.04e-05,0.0,0 STARLINK-3549,1 51891U 22022AR  22314.70247689 -.00004040  00000-0 -23587-3 0  9995,2 51891  53.2189  53.4225 0001629  34.9908 325.1191 15.08836222 39872,6917.892,95.438,540.884,538.63,0.0
51891.0,STARLINK-3549,PAYLOAD,2022-11-11 13:31:34,15.08834277,0.0001875,53.2179,49.5578,45.3127,314.8018,9.8754e-05,1.284e-05,0.0,0 STARLINK-3549,1 51891U 22022AR  22315.56359453  .00001284  00000-0  98754-4 0  9997,2 51891  53.2179  49.5578 0001875  45.3127 314.8018 15.08834277 40008,6917.898,95.438,541.06,538.466,0.0
51891.0,STARLINK-3549,PAYLOAD,2022-11-11 15:06:57,15.08836606,0.0001893,53.2181,49.2605,45.149,314.9656,0.00011424,1.53e-05,0.0,0 STARLINK-3549,1 51891U 22022AR  22315.62983308  .00001530  00000-0  11424-3 0  9998,2 51891  53.2181  49.2605 0001893  45.1490 314.9656 15.08836606 40018,6917.891,95.438,541.065,538.446,0.0
51891.0,STARLINK-3549,PAYLOAD,2022-11-12 11:46:57,15.08858289,0.0001708,53.2172,45.3949,41.1989,318.9131,-0.00014859,-2.653e-05,0.0,0 STARLINK-3549,1 51891U 22022AR  22316.49094423 -.00002653  00000-0 -14859-3 0  9999,2 51891  53.2172  45.3949 0001708  41.1989 318.9131 15.08858289 40147,6917.824000000001,95.436,540.871,538.508,0.0
51891.0,STARLINK-3549,PAYLOAD,2022-11-12 14:57:44,15.08839645,0.0002001,53.2173,44.8014,47.5753,312.5408,0.00017788,2.544e-05,0.0,0 STARLINK-3549,1 51891U 22022AR  22316.62343518  .00002544  00000-0  17788-3 0  9997,2 51891  53.2173  44.8014 0002001  47.5753 312.5408 15.08839645 40165,6917.880999999999,95.438,541.131,538.362,0.0
51891.0,STARLINK-3549,PAYLOAD,2022-11-13 11:37:45,15.08827613,0.0001872,53.2172,40.9348,45.4556,314.6589,-0.00024581,-4.197e-05,0.0,0 STARLINK-3549,1 51891U 22022AR  22317.48455799 -.00004197  00000-0 -24581-3 0  9994,2 51891  53.2172  40.9348 0001872  45.4556 314.6589 15.08827613 40293,6917.918000000002,95.438,541.078,538.488,0.0
51891.0,STARLINK-3549,PAYLOAD,2022-11-13 17:59:19,15.08831128,0.000188,53.2178,39.7447,40.4182,319.695,-2.0937e-05,-6.21e-06,0.0,0 STARLINK-3549,1 51891U 22022AR  22317.74952647 -.00000621  00000-0 -20937-4 0  9997,2 51891  53.2178  39.7447 0001880  40.4182 319.6950 15.08831128 40332,6917.908,95.438,541.073,538.472,0.0
51891.0,STARLINK-3549,PAYLOAD,2022-11-14 11:28:33,15.08832287,0.0001949,53.2178,36.4737,36.9881,323.1245,-0.00010114,-1.897e-05,0.0,0 STARLINK-3549,1 51891U 22022AR  22318.47817100 -.00001897  00000-0 -10114-3 0  9993,2 51891  53.2178  36.4737 0001949  36.9881 323.1245 15.08832287 40446,6917.904,95.438,541.117,538.4209999999998,0.0
51891.0,STARLINK-3549,PAYLOAD,2022-11-14 16:14:43,15.08835858,0.0001965,53.2178,35.5813,40.0172,320.0964,-7.0424e-05,-1.409e-05,0.0,0 STARLINK-3549,1 51891U 22022AR  22318.67688874 -.00001409  00000-0 -70424-4 0  9999,2 51891  53.2178  35.5813 0001965  40.0172 320.0964 15.08835858 40472,6917.893,95.438,541.117,538.399,0.0
51891.0,STARLINK-3549,PAYLOAD,2022-11-14 17:50:06,15.08835462,0.0001967,53.2178,35.284,39.4012,320.7122,-6.3871e-05,-1.304e-05,0.0,0 STARLINK-3549,1 51891U 22022AR  22318.74312887 -.00001304  00000-0 -63871-4 0  9997,2 51891  53.2178  35.2840 0001967  39.4012 320.7122 15.08835462 40481,6917.894,95.438,541.12,538.399,0.0
51891.0,STARLINK-3549,PAYLOAD,2022-11-15 11:19:21,15.08824512,0.0002008,53.2177,32.0132,37.9447,322.1686,9.4792e-05,1.22e-05,0.0,0 STARLINK-3549,1 51891U 22022AR  22319.47177443  .00001220  00000-0  94792-4 0  9996,2 51891  53.2177  32.0132 0002008  37.9447 322.1686 15.08824512 40598,6917.928000000001,95.439,541.182,538.404,0.0
51891.0,STARLINK-3549,PAYLOAD,2022-11-15 14:30:07,15.0882538,0.0002023,53.2177,31.4186,38.0336,322.0798,9.976e-05,1.299e-05,0.0,0 STARLINK-3549,1 51891U 22022AR  22319.60425541  .00001299  00000-0  99760-4 0  9992,2 51891  53.2177  31.4186 0002023  38.0336 322.0798 15.08825380 40616,6917.925,95.438,541.19,538.391,0.0
51891.0,STARLINK-3549,PAYLOAD,2022-11-16 11:10:07,15.08845391,0.0002053,53.2176,27.5527,38.8636,321.2503,0.00019677,2.845e-05,0.0,0 STARLINK-3549,1 51891U 22022AR  22320.46536303  .00002845  00000-0  19677-3 0  9993,2 51891  53.2176  27.5527 0002053  38.8636 321.2503 15.08845391 40747,6917.864000000001,95.437,541.149,538.309,0.0
51891.0,STARLINK-3549,PAYLOAD,2022-11-16 14:20:53,15.08841086,0.0002057,53.218,26.9585,38.8801,321.2339,0.0001582,2.231e-05,0.0,0 STARLINK-3549,1 51891U 22022AR  22320.59784694  .00002231  00000-0  15820-3 0  9990,2 51891  53.2180  26.9585 0002057  38.8801 321.2339 15.08841086 40763,6917.877,95.437,541.165,538.319,0.0
51891.0,STARLINK-3549,PAYLOAD,2022-11-17 09:25:31,15.08841445,0.0001939,53.2188,23.3905,38.0026,322.1103,0.00010851,1.439e-05,0.0,0 STARLINK-3549,1 51891U 22022AR  22321.39272583  .00001439  00000-0  10851-3 0  9996,2 51891  53.2188  23.3905 0001939  38.0026 322.1103 15.08841445 40888,6917.876,95.437,541.082,538.4,0.0
51891.0,STARLINK-3549,PAYLOAD,2022-11-17 14:11:41,15.08838584,0.000202,53.2174,22.4974,34.5619,325.5505,7.1185e-05,8.45e-06,0.0,0 STARLINK-3549,1 51891U 22022AR  22321.59144882  .00000845  00000-0  71185-4 0  9996,2 51891  53.2174  22.4974 0002020  34.5619 325.5505 15.08838584 40917,6917.885,95.438,541.1469999999998,538.352,0.0
51891.0,STARLINK-3549,PAYLOAD,2022-11-18 04:30:09,15.0884908,0.0002103,53.2172,19.8212,32.3892,327.7229,-4.588e-05,-1.019e-05,0.0,0 STARLINK-3549,1 51891U 22022AR  22322.18760473 -.00001019  00000-0 -45880-4 0  9991,2 51891  53.2172  19.8212 0002103  32.3892 327.7229 15.08849080 41002,6917.853,95.437,541.172,538.263,0.0
51891.0,STARLINK-3549,PAYLOAD,2022-11-18 15:37:51,15.0883646,0.0002086,53.2175,17.7397,32.2665,327.8455,-0.00014115,-2.534e-05,0.0,0 STARLINK-3549,1 51891U 22022AR  22322.65129516 -.00002534  00000-0 -14115-3 0  9999,2 51891  53.2175  17.7397 0002086  32.2665 327.8455 15.08836460 41070,6917.891,95.438,541.1990000000002,538.313,0.0
51891.0,STARLINK-3549,PAYLOAD,2022-11-18 20:24:01,15.08838102,0.0002074,53.2173,16.8483,34.221,325.8916,-0.00012435,-2.267e-05,0.0,0 STARLINK-3549,1 51891U 22022AR  22322.85001342 -.00002267  00000-0 -12435-3 0  9993,2 51891  53.2173  16.8483 0002074  34.2210 325.8916 15.08838102 41108,6917.886,95.438,541.186,538.316,0.0
51891.0,STARLINK-3549,PAYLOAD,2022-11-19 05:56:19,15.08838315,0.0002137,53.2173,15.0637,33.199,326.9136,1.1934e-05,-9.8e-07,0.0,0 STARLINK-3549,1 51891U 22022AR  22323.24745034 -.00000098  00000-0  11934-4 0  9993,2 51891  53.2173  15.0637 0002137  33.1990 326.9136 15.08838315 41161,6917.886,95.438,541.229,538.2719999999998,0.0
51891.0,STARLINK-3549,PAYLOAD,2022-11-19 12:17:51,15.08842979,0.0002227,53.2172,13.8746,34.2189,325.8946,5.7888e-05,6.33e-06,0.0,0 STARLINK-3549,1 51891U 22022AR  22323.51240607  .00000633  00000-0  57888-4 0  9991,2 51891  53.2172  13.8746 0002227  34.2189 325.8946 15.08842979 41202,6917.871,95.437,541.2769999999998,538.196,0.0
51891.0,STARLINK-3549,PAYLOAD,2022-11-20 12:08:39,15.08843911,0.0002201,53.2175,9.4141,35.6417,324.4721,4.1876e-06,-2.22e-06,0.0,0 STARLINK-3549,1 51891U 22022AR  22324.50600746 -.00000222  00000-0  41876-5 0  9991,2 51891  53.2175   9.4141 0002201  35.6417 324.4721 15.08843911 41355,6917.868,95.437,541.256,538.211,0.0
51891.0,STARLINK-3549,PAYLOAD,2022-11-21 08:48:40,15.08838246,0.000214,53.2182,5.5489,40.8954,319.2199,-3.688e-07,-2.94e-06,0.0,0 STARLINK-3549,1 51891U 22022AR  22325.36713336 -.00000294  00000-0 -36880-6 0  9996,2 51891  53.2182   5.5489 0002140  40.8954 319.2199 15.08838246 41481,6917.886,95.438,541.231,538.27,0.0
51891.0,STARLINK-3549,PAYLOAD,2022-11-21 10:24:03,15.08844799,0.0002205,53.2179,5.2514,36.9365,323.1779,-0.0001601,-2.836e-05,0.0,0 STARLINK-3549,1 51891U 22022AR  22325.43337425 -.00002836  00000-0 -16010-3 0  9999,2 51891  53.2179   5.2514 0002205  36.9365 323.1779 15.08844799 41496,6917.866,95.437,541.256,538.205,0.0
